{
  "type": "FeatureCollection",
  "features": [
    {
      "type": "Feature",
      "properties": {
        "norad_id": 58701,
        "name": "TIANMU-1 16",
        "group": "weather",
        "lat": -26.94011992036923,
        "lon": 170.13483616035282,
        "alt_km": 495.68862317471394,
        "timestamp": "2025-12-11T10:53:15.526746+00:00",
        "meta_object_name": "TIANMU-1 16",
        "meta_object_id": "2024-004B",
        "meta_epoch": "2025-12-11T04:42:17.996832",
        "meta_mean_motion": 15.24398494,
        "meta_eccentricity": 0.0004586,
        "meta_inclination": 97.4571,
        "meta_ra_of_asc_node": 166.0617,
        "meta_arg_of_pericenter": 303.2615,
        "meta_mean_anomaly": 56.8183,
        "meta_ephemeris_type": 0,
        "meta_classification_type": "U",
        "meta_norad_cat_id": 58701,
        "meta_element_set_no": 999,
        "meta_rev_at_epoch": 10711,
        "meta_bstar": 0.00046335,
        "meta_mean_motion_dot": 0.00011295,
        "meta_mean_motion_ddot": 0,
        "tle_line1": "1 58701U 24004B   25345.19604163  .00011295  00000+0  46335-3 0  9991",
        "tle_line2": "2 58701  97.4571 166.0617 0004586 303.2615  56.8183 15.24398494107116"
      },
      "geometry": {
        "type": "Point",
        "coordinates": [
          170.13483616035282,
          -26.94011992036923
        ]
      }
    },
    {
      "type": "Feature",
      "properties": {
        "norad_id": 58702,
        "name": "TIANMU-1 17",
        "group": "weather",
        "lat": 56.42357012233905,
        "lon": 155.3418194027314,
        "alt_km": 488.00417064580324,
        "timestamp": "2025-12-11T10:53:15.526756+00:00",
        "meta_object_name": "TIANMU-1 17",
        "meta_object_id": "2024-004C",
        "meta_epoch": "2025-12-11T04:20:10.929984",
        "meta_mean_motion": 15.24442723,
        "meta_eccentricity": 0.0003768,
        "meta_inclination": 97.4605,
        "meta_ra_of_asc_node": 166.4557,
        "meta_arg_of_pericenter": 307.3382,
        "meta_mean_anomaly": 52.7511,
        "meta_ephemeris_type": 0,
        "meta_classification_type": "U",
        "meta_norad_cat_id": 58702,
        "meta_element_set_no": 999,
        "meta_rev_at_epoch": 10710,
        "meta_bstar": 0.00043451,
        "meta_mean_motion_dot": 0.00010599,
        "meta_mean_motion_ddot": 0,
        "tle_line1": "1 58702U 24004C   25345.18068206  .00010599  00000+0  43451-3 0  9995",
        "tle_line2": "2 58702  97.4605 166.4557 0003768 307.3382  52.7511 15.24442723107103"
      },
      "geometry": {
        "type": "Point",
        "coordinates": [
          155.3418194027314,
          56.42357012233905
        ]
      }
    },
    {
      "type": "Feature",
      "properties": {
        "norad_id": 58703,
        "name": "TIANMU-1 18",
        "group": "weather",
        "lat": 30.85203691798785,
        "lon": -8.586795159379223,
        "alt_km": 492.8790711828851,
        "timestamp": "2025-12-11T10:53:15.526766+00:00",
        "meta_object_name": "TIANMU-1 18",
        "meta_object_id": "2024-004D",
        "meta_epoch": "2025-12-11T03:56:08.149344",
        "meta_mean_motion": 15.24430654,
        "meta_eccentricity": 0.0003107,
        "meta_inclination": 97.4622,
        "meta_ra_of_asc_node": 166.6341,
        "meta_arg_of_pericenter": 308.0391,
        "meta_mean_anomaly": 52.0565,
        "meta_ephemeris_type": 0,
        "meta_classification_type": "U",
        "meta_norad_cat_id": 58703,
        "meta_element_set_no": 999,
        "meta_rev_at_epoch": 10710,
        "meta_bstar": 0.00040764,
        "meta_mean_motion_dot": 9.935e-05,
        "meta_mean_motion_ddot": 0,
        "tle_line1": "1 58703U 24004D   25345.16398321  .00009935  00000+0  40764-3 0  9994",
        "tle_line2": "2 58703  97.4622 166.6341 0003107 308.0391  52.0565 15.24430654107103"
      },
      "geometry": {
        "type": "Point",
        "coordinates": [
          -8.586795159379223,
          30.85203691798785
        ]
      }
    },
    {
      "type": "Feature",
      "properties": {
        "norad_id": 58990,
        "name": "INSAT-3DS",
        "group": "weather",
        "lat": -0.020409105587376505,
        "lon": -34.17677556187203,
        "alt_km": 35781.91310103558,
        "timestamp": "2025-12-11T10:53:15.526777+00:00",
        "meta_object_name": "INSAT-3DS",
        "meta_object_id": "2024-033A",
        "meta_epoch": "2025-12-11T03:37:49.059264",
        "meta_mean_motion": 1.00275093,
        "meta_eccentricity": 0.0001555,
        "meta_inclination": 0.0367,
        "meta_ra_of_asc_node": 130.251,
        "meta_arg_of_pericenter": 135.2929,
        "meta_mean_anomaly": 311.1059,
        "meta_ephemeris_type": 0,
        "meta_classification_type": "U",
        "meta_norad_cat_id": 58990,
        "meta_element_set_no": 999,
        "meta_rev_at_epoch": 4518,
        "meta_bstar": 0,
        "meta_mean_motion_dot": -1.51e-06,
        "meta_mean_motion_ddot": 0,
        "tle_line1": "1 58990U 24033A   25345.15126226 -.00000151  00000+0  00000+0 0  9993",
        "tle_line2": "2 58990   0.0367 130.2510 0001555 135.2929 311.1059  1.00275093 45183"
      },
      "geometry": {
        "type": "Point",
        "coordinates": [
          -34.17677556187203,
          -0.020409105587376505
        ]
      }
    },
    {
      "type": "Feature",
      "properties": {
        "norad_id": 59051,
        "name": "METEOR-M2 4",
        "group": "weather",
        "lat": 72.93799027692775,
        "lon": -87.45368490406618,
        "alt_km": 808.7201922326549,
        "timestamp": "2025-12-11T10:53:15.526788+00:00",
        "meta_object_name": "METEOR-M2 4",
        "meta_object_id": "2024-039A",
        "meta_epoch": "2025-12-11T03:46:57.271584",
        "meta_mean_motion": 14.22400904,
        "meta_eccentricity": 0.0007124,
        "meta_inclination": 98.6764,
        "meta_ra_of_asc_node": 302.0913,
        "meta_arg_of_pericenter": 3.0911,
        "meta_mean_anomaly": 357.031,
        "meta_ephemeris_type": 0,
        "meta_classification_type": "U",
        "meta_norad_cat_id": 59051,
        "meta_element_set_no": 999,
        "meta_rev_at_epoch": 9253,
        "meta_bstar": 5.9678e-05,
        "meta_mean_motion_dot": 8.9e-07,
        "meta_mean_motion_ddot": 0,
        "tle_line1": "1 59051U 24039A   25345.15760731  .00000089  00000+0  59678-4 0  9992",
        "tle_line2": "2 59051  98.6764 302.0913 0007124   3.0911 357.0310 14.22400904 92532"
      },
      "geometry": {
        "type": "Point",
        "coordinates": [
          -87.45368490406618,
          72.93799027692775
        ]
      }
    },
    {
      "type": "Feature",
      "properties": {
        "norad_id": 60133,
        "name": "GOES 19",
        "group": "weather",
        "lat": -0.00011662293610699262,
        "lon": 168.53175972146636,
        "alt_km": 35790.656305495366,
        "timestamp": "2025-12-11T10:53:15.526802+00:00",
        "meta_object_name": "GOES 19",
        "meta_object_id": "2024-119A",
        "meta_epoch": "2025-12-11T02:52:53.361120",
        "meta_mean_motion": 1.00271118,
        "meta_eccentricity": 0.0001331,
        "meta_inclination": 0.0124,
        "meta_ra_of_asc_node": 101.3226,
        "meta_arg_of_pericenter": 208.3753,
        "meta_mean_anomaly": 98.4272,
        "meta_ephemeris_type": 0,
        "meta_classification_type": "U",
        "meta_norad_cat_id": 60133,
        "meta_element_set_no": 999,
        "meta_rev_at_epoch": 507,
        "meta_bstar": 0,
        "meta_mean_motion_dot": -2.43e-06,
        "meta_mean_motion_ddot": 0,
        "tle_line1": "1 60133U 24119A   25345.12006205 -.00000243  00000+0  00000+0 0  9993",
        "tle_line2": "2 60133   0.0124 101.3226 0001331 208.3753  98.4272  1.00271118  5078"
      },
      "geometry": {
        "type": "Point",
        "coordinates": [
          168.53175972146636,
          -0.00011662293610699262
        ]
      }
    },
    {
      "type": "Feature",
      "properties": {
        "norad_id": 65815,
        "name": "FENGYUN 3H",
        "group": "weather",
        "lat": -34.0076684555141,
        "lon": -69.02716464599776,
        "alt_km": 832.0619940699744,
        "timestamp": "2025-12-11T10:53:15.526815+00:00",
        "meta_object_name": "FENGYUN 3H",
        "meta_object_id": "2025-219A",
        "meta_epoch": "2025-12-11T04:17:05.092224",
        "meta_mean_motion": 14.1990399,
        "meta_eccentricity": 6.08e-05,
        "meta_inclination": 98.6583,
        "meta_ra_of_asc_node": 284.8029,
        "meta_arg_of_pericenter": 89.3681,
        "meta_mean_anomaly": 270.7565,
        "meta_ephemeris_type": 0,
        "meta_classification_type": "U",
        "meta_norad_cat_id": 65815,
        "meta_element_set_no": 999,
        "meta_rev_at_epoch": 1070,
        "meta_bstar": 0.000101,
        "meta_mean_motion_dot": 1.71e-06,
        "meta_mean_motion_ddot": 0,
        "tle_line1": "1 65815U 25219A   25345.17853116  .00000171  00000+0  10100-3 0  9998",
        "tle_line2": "2 65815  98.6583 284.8029 0000608  89.3681 270.7565 14.19903990 10703"
      },
      "geometry": {
        "type": "Point",
        "coordinates": [
          -69.02716464599776,
          -34.0076684555141
        ]
      }
    }
  ]
}